{
  "type": "FeatureCollection",
  "features": [
    {
      "type": "Feature",
      "properties": {
        "norad_id": 43823,
        "name": "GEO-KOMPSAT-2A",
        "group": "weather",
        "lat": -0.0032887919193147212,
        "lon": -24.63127582353569,
        "alt_km": 35788.10041056016,
        "timestamp": "2025-12-03T08:58:45.641465+00:00",
        "meta_object_name": "GEO-KOMPSAT-2A",
        "meta_object_id": "2018-100A",
        "meta_epoch": "2025-12-02T22:57:21.193056",
        "meta_mean_motion": 1.00268627,
        "meta_eccentricity": 5.34e-05,
        "meta_inclination": 0.0243,
        "meta_ra_of_asc_node": 71.4005,
        "meta_arg_of_pericenter": 145.3894,
        "meta_mean_anomaly": 327.8405,
        "meta_ephemeris_type": 0,
        "meta_classification_type": "U",
        "meta_norad_cat_id": 43823,
        "meta_element_set_no": 999,
        "meta_rev_at_epoch": 2566,
        "meta_bstar": 0,
        "meta_mean_motion_dot": 0,
        "meta_mean_motion_ddot": 0,
        "tle_line1": "1 43823U 18100A   25336.95649529  .00000000  00000+0  00000+0 0  9996",
        "tle_line2": "2 43823   0.0243  71.4005 0000534 145.3894 327.8405  1.00268627 25664"
      },
      "geometry": {
        "type": "Point",
        "coordinates": [
          -24.63127582353569,
          -0.0032887919193147212
        ]
      }
    },
    {
      "type": "Feature",
      "properties": {
        "norad_id": 44387,
        "name": "METEOR-M2 2",
        "group": "weather",
        "lat": -77.01360991822118,
        "lon": 94.20966885014363,
        "alt_km": 818.2301077514512,
        "timestamp": "2025-12-03T08:58:45.641475+00:00",
        "meta_object_name": "METEOR-M2 2",
        "meta_object_id": "2019-038A",
        "meta_epoch": "2025-12-03T04:23:16.805760",
        "meta_mean_motion": 14.24284786,
        "meta_eccentricity": 8.63e-05,
        "meta_inclination": 98.8963,
        "meta_ra_of_asc_node": 316.7952,
        "meta_arg_of_pericenter": 168.4074,
        "meta_mean_anomaly": 191.7124,
        "meta_ephemeris_type": 0,
        "meta_classification_type": "U",
        "meta_norad_cat_id": 44387,
        "meta_element_set_no": 999,
        "meta_rev_at_epoch": 33339,
        "meta_bstar": 0.00012572,
        "meta_mean_motion_dot": 2.44e-06,
        "meta_mean_motion_ddot": 0,
        "tle_line1": "1 44387U 19038A   25337.18283340  .00000244  00000+0  12572-3 0  9995",
        "tle_line2": "2 44387  98.8963 316.7952 0000863 168.4074 191.7124 14.24284786333393"
      },
      "geometry": {
        "type": "Point",
        "coordinates": [
          94.20966885014363,
          -77.01360991822118
        ]
      }
    },
    {
      "type": "Feature",
      "properties": {
        "norad_id": 47719,
        "name": "ARKTIKA-M 1",
        "group": "weather",
        "lat": 62.553680462698544,
        "lon": -171.4449013218725,
        "alt_km": 38410.232030345906,
        "timestamp": "2025-12-03T08:58:45.641488+00:00",
        "meta_object_name": "ARKTIKA-M 1",
        "meta_object_id": "2021-016A",
        "meta_epoch": "2025-12-01T02:41:41.634816",
        "meta_mean_motion": 2.00613156,
        "meta_eccentricity": 0.71974708,
        "meta_inclination": 63.1756,
        "meta_ra_of_asc_node": 85.6045,
        "meta_arg_of_pericenter": 269.084,
        "meta_mean_anomaly": 15.7076,
        "meta_ephemeris_type": 0,
        "meta_classification_type": "U",
        "meta_norad_cat_id": 47719,
        "meta_element_set_no": 999,
        "meta_rev_at_epoch": 3481,
        "meta_bstar": 0,
        "meta_mean_motion_dot": -1.2e-07,
        "meta_mean_motion_ddot": 0,
        "tle_line1": "1 47719U 21016A   25335.11228744 -.00000012  00000+0  00000+0 0  9997",
        "tle_line2": "2 47719  63.1756  85.6045 7197470 269.0840  15.7076  2.00613156 34816"
      },
      "geometry": {
        "type": "Point",
        "coordinates": [
          -171.4449013218725,
          62.553680462698544
        ]
      }
    },
    {
      "type": "Feature",
      "properties": {
        "norad_id": 49008,
        "name": "FENGYUN 3E",
        "group": "weather",
        "lat": 8.151619877451395,
        "lon": -23.257391676622007,
        "alt_km": 827.1557683564006,
        "timestamp": "2025-12-03T08:58:45.641504+00:00",
        "meta_object_name": "FENGYUN 3E",
        "meta_object_id": "2021-062A",
        "meta_epoch": "2025-12-03T05:33:29.294784",
        "meta_mean_motion": 14.19877916,
        "meta_eccentricity": 7.63e-05,
        "meta_inclination": 98.7476,
        "meta_ra_of_asc_node": 337.8655,
        "meta_arg_of_pericenter": 325.5706,
        "meta_mean_anomaly": 34.542,
        "meta_ephemeris_type": 0,
        "meta_classification_type": "U",
        "meta_norad_cat_id": 49008,
        "meta_element_set_no": 999,
        "meta_rev_at_epoch": 22877,
        "meta_bstar": 4.3016e-05,
        "meta_mean_motion_dot": 4.7e-07,
        "meta_mean_motion_ddot": 0,
        "tle_line1": "1 49008U 21062A   25337.23158906  .00000047  00000+0  43016-4 0  9994",
        "tle_line2": "2 49008  98.7476 337.8655 0000763 325.5706  34.5420 14.19877916228772"
      },
      "geometry": {
        "type": "Point",
        "coordinates": [
          -23.257391676622007,
          8.151619877451395
        ]
      }
    },
    {
      "type": "Feature",
      "properties": {
        "norad_id": 51850,
        "name": "GOES 18",
        "group": "weather",
        "lat": 0.011293663843314511,
        "lon": 70.13157222103041,
        "alt_km": 35788.86492160612,
        "timestamp": "2025-12-03T08:58:45.641515+00:00",
        "meta_object_name": "GOES 18",
        "meta_object_id": "2022-021A",
        "meta_epoch": "2025-12-03T02:49:53.262048",
        "meta_mean_motion": 1.00270254,
        "meta_eccentricity": 7.24e-05,
        "meta_inclination": 0.0067,
        "meta_ra_of_asc_node": 251.6796,
        "meta_arg_of_pericenter": 37.5748,
        "meta_mean_anomaly": 48.4284,
        "meta_ephemeris_type": 0,
        "meta_classification_type": "U",
        "meta_norad_cat_id": 51850,
        "meta_element_set_no": 999,
        "meta_rev_at_epoch": 462,
        "meta_bstar": 0,
        "meta_mean_motion_dot": 1.16e-06,
        "meta_mean_motion_ddot": 0,
        "tle_line1": "1 51850U 22021A   25337.11797757  .00000116  00000+0  00000+0 0  9996",
        "tle_line2": "2 51850   0.0067 251.6796 0000724  37.5748  48.4284  1.00270254  4620"
      },
      "geometry": {
        "type": "Point",
        "coordinates": [
          70.13157222103041,
          0.011293663843314511
        ]
      }
    },
    {
      "type": "Feature",
      "properties": {
        "norad_id": 54234,
        "name": "NOAA 21 (JPSS-2)",
        "group": "weather",
        "lat": 26.330806545374465,
        "lon": -90.5689496316694,
        "alt_km": 824.3618039839976,
        "timestamp": "2025-12-03T08:58:45.641526+00:00",
        "meta_object_name": "NOAA 21 (JPSS-2)",
        "meta_object_id": "2022-150A",
        "meta_epoch": "2025-12-03T02:05:15.054720",
        "meta_mean_motion": 14.19519755,
        "meta_eccentricity": 0.0002539,
        "meta_inclination": 98.7448,
        "meta_ra_of_asc_node": 273.5163,
        "meta_arg_of_pericenter": 56.0018,
        "meta_mean_anomaly": 304.1399,
        "meta_ephemeris_type": 0,
        "meta_classification_type": "U",
        "meta_norad_cat_id": 54234,
        "meta_element_set_no": 999,
        "meta_rev_at_epoch": 15872,
        "meta_bstar": 9.0626e-05,
        "meta_mean_motion_dot": 1.47e-06,
        "meta_mean_motion_ddot": 0,
        "tle_line1": "1 54234U 22150A   25337.08697980  .00000147  00000+0  90626-4 0  9993",
        "tle_line2": "2 54234  98.7448 273.5163 0002539  56.0018 304.1399 14.19519755158725"
      },
      "geometry": {
        "type": "Point",
        "coordinates": [
          -90.5689496316694,
          26.330806545374465
        ]
      }
    },
    {
      "type": "Feature",
      "properties": {
        "norad_id": 54743,
        "name": "METEOSAT-12 (MTG-I1)",
        "group": "weather",
        "lat": 0.0156559039122007,
        "lon": -153.1701784070359,
        "alt_km": 35780.56888786614,
        "timestamp": "2025-12-03T08:58:45.641539+00:00",
        "meta_object_name": "METEOSAT-12 (MTG-I1)",
        "meta_object_id": "2022-170C",
        "meta_epoch": "2025-12-03T01:46:06.873024",
        "meta_mean_motion": 1.00273605,
        "meta_eccentricity": 0.0001496,
        "meta_inclination": 0.7168,
        "meta_ra_of_asc_node": 29.9715,
        "meta_arg_of_pericenter": 214.9181,
        "meta_mean_anomaly": 213.5156,
        "meta_ephemeris_type": 0,
        "meta_classification_type": "U",
        "meta_norad_cat_id": 54743,
        "meta_element_set_no": 999,
        "meta_rev_at_epoch": 1101,
        "meta_bstar": 0,
        "meta_mean_motion_dot": 1.2e-07,
        "meta_mean_motion_ddot": 0,
        "tle_line1": "1 54743U 22170C   25337.07369066  .00000012  00000+0  00000+0 0  9993",
        "tle_line2": "2 54743   0.7168  29.9715 0001496 214.9181 213.5156  1.00273605 11016"
      },
      "geometry": {
        "type": "Point",
        "coordinates": [
          -153.1701784070359,
          0.0156559039122007
        ]
      }
    }
  ]
}